{"fetched_at":"2026-07-23T17:55:34.243Z","source":"https://celestrak.org/NORAD/elements/gp.php?NAME=HULIANWANG&FORMAT=JSON","constellation":"guowang","records":[{"OBJECT_NAME":"HULIANWANG JISHU SHIYAN A","OBJECT_ID":"2023-095A","EPOCH":"2026-07-23T08:01:50.349792","CLASSIFICATION_TYPE":"U","MEAN_MOTION":13.39544699,"ECCENTRICITY":0.00195408,"INCLINATION":86.5053,"RA_OF_ASC_NODE":352.2618,"ARG_OF_PERICENTER":90.7743,"MEAN_ANOMALY":269.5639,"EPHEMERIS_TYPE":0,"NORAD_CAT_ID":57288,"ELEMENT_SET_NO":999,"REV_AT_EPOCH":14859,"BSTAR":0.000065107885,"MEAN_MOTION_DOT":5.1e-7,"MEAN_MOTION_DDOT":0},{"OBJECT_NAME":"HULIANWANG JISHU SHIYAN B","OBJECT_ID":"2023-095B","EPOCH":"2026-07-23T07:49:30.993888","CLASSIFICATION_TYPE":"U","MEAN_MOTION":13.39553314,"ECCENTRICITY":0.00181115,"INCLINATION":86.5054,"RA_OF_ASC_NODE":352.2742,"ARG_OF_PERICENTER":89.0186,"MEAN_ANOMALY":271.3032,"EPHEMERIS_TYPE":0,"NORAD_CAT_ID":57289,"ELEMENT_SET_NO":999,"REV_AT_EPOCH":14859,"BSTAR":0.000064734427,"MEAN_MOTION_DOT":5e-7,"MEAN_MOTION_DDOT":0},{"OBJECT_NAME":"HULIANWANG JISHU SHIYAN 4A","OBJECT_ID":"2023-212A","EPOCH":"2026-07-23T05:02:05.576064","CLASSIFICATION_TYPE":"U","MEAN_MOTION":13.41459515,"ECCENTRICITY":0.00012365,"INCLINATION":49.9981,"RA_OF_ASC_NODE":211.7661,"ARG_OF_PERICENTER":247.2045,"MEAN_ANOMALY":112.8702,"EPHEMERIS_TYPE":0,"NORAD_CAT_ID":58691,"ELEMENT_SET_NO":999,"REV_AT_EPOCH":12608,"BSTAR":0.000072873496,"MEAN_MOTION_DOT":-8.8e-7,"MEAN_MOTION_DDOT":0},{"OBJECT_NAME":"HULIANWANG JISHU SHIYAN 4B","OBJECT_ID":"2023-212B","EPOCH":"2026-07-23T04:52:25.052736","CLASSIFICATION_TYPE":"U","MEAN_MOTION":13.41460583,"ECCENTRICITY":0.00013751,"INCLINATION":49.995,"RA_OF_ASC_NODE":212.1464,"ARG_OF_PERICENTER":236.4252,"MEAN_ANOMALY":123.6494,"EPHEMERIS_TYPE":0,"NORAD_CAT_ID":58692,"ELEMENT_SET_NO":999,"REV_AT_EPOCH":12608,"BSTAR":0.000065736945,"MEAN_MOTION_DOT":-9.1e-7,"MEAN_MOTION_DDOT":0},{"OBJECT_NAME":"HULIANWANG JISHU SHIYAN 4C","OBJECT_ID":"2023-212C","EPOCH":"2026-07-23T04:57:04.545504","CLASSIFICATION_TYPE":"U","MEAN_MOTION":13.41462529,"ECCENTRICITY":0.0001219,"INCLINATION":49.9964,"RA_OF_ASC_NODE":212.2621,"ARG_OF_PERICENTER":225.8928,"MEAN_ANOMALY":134.1849,"EPHEMERIS_TYPE":0,"NORAD_CAT_ID":58693,"ELEMENT_SET_NO":999,"REV_AT_EPOCH":12609,"BSTAR":0.000087500079,"MEAN_MOTION_DOT":-7.9e-7,"MEAN_MOTION_DDOT":0},{"OBJECT_NAME":"HULIANWANG DIGUI-01","OBJECT_ID":"2024-240A","EPOCH":"2026-07-23T06:16:31.039968","CLASSIFICATION_TYPE":"U","MEAN_MOTION":13.24411885,"ECCENTRICITY":0.0002055,"INCLINATION":86.5026,"RA_OF_ASC_NODE":331.069,"ARG_OF_PERICENTER":103.8994,"MEAN_ANOMALY":256.2369,"EPHEMERIS_TYPE":0,"NORAD_CAT_ID":62323,"ELEMENT_SET_NO":999,"REV_AT_EPOCH":7741,"BSTAR":0.000032362591,"MEAN_MOTION_DOT":2.9e-7,"MEAN_MOTION_DDOT":0},{"OBJECT_NAME":"HULIANWANG DIGUI-02","OBJECT_ID":"2024-240B","EPOCH":"2026-07-23T06:27:15.685920","CLASSIFICATION_TYPE":"U","MEAN_MOTION":13.24411773,"ECCENTRICITY":0.00020266,"INCLINATION":86.5055,"RA_OF_ASC_NODE":331.2358,"ARG_OF_PERICENTER":104.7065,"MEAN_ANOMALY":255.4294,"EPHEMERIS_TYPE":0,"NORAD_CAT_ID":62324,"ELEMENT_SET_NO":999,"REV_AT_EPOCH":7742,"BSTAR":0.000034447672,"MEAN_MOTION_DOT":2.9e-7,"MEAN_MOTION_DDOT":0},{"OBJECT_NAME":"HULIANWANG DIGUI-03","OBJECT_ID":"2024-240C","EPOCH":"2026-07-23T06:05:37.323744","CLASSIFICATION_TYPE":"U","MEAN_MOTION":13.24410487,"ECCENTRICITY":0.00020712,"INCLINATION":86.5009,"RA_OF_ASC_NODE":330.9676,"ARG_OF_PERICENTER":102.1277,"MEAN_ANOMALY":258.0089,"EPHEMERIS_TYPE":0,"NORAD_CAT_ID":62325,"ELEMENT_SET_NO":999,"REV_AT_EPOCH":7741,"BSTAR":0.000053658577,"MEAN_MOTION_DOT":3.8e-7,"MEAN_MOTION_DDOT":0},{"OBJECT_NAME":"HULIANWANG DIGUI-04","OBJECT_ID":"2024-240D","EPOCH":"2026-07-23T07:43:33.341952","CLASSIFICATION_TYPE":"U","MEAN_MOTION":13.24410726,"ECCENTRICITY":0.00021888,"INCLINATION":86.5019,"RA_OF_ASC_NODE":330.9888,"ARG_OF_PERICENTER":101.0941,"MEAN_ANOMALY":259.0439,"EPHEMERIS_TYPE":0,"NORAD_CAT_ID":62326,"ELEMENT_SET_NO":999,"REV_AT_EPOCH":7742,"BSTAR":0.000062159183,"MEAN_MOTION_DOT":4.1e-7,"MEAN_MOTION_DDOT":0},{"OBJECT_NAME":"HULIANWANG DIGUI-05","OBJECT_ID":"2024-240E","EPOCH":"2026-07-23T07:32:40.467264","CLASSIFICATION_TYPE":"U","MEAN_MOTION":13.24411353,"ECCENTRICITY":0.00022083,"INCLINATION":86.5071,"RA_OF_ASC_NODE":331.2812,"ARG_OF_PERICENTER":98.5836,"MEAN_ANOMALY":261.5548,"EPHEMERIS_TYPE":0,"NORAD_CAT_ID":62327,"ELEMENT_SET_NO":999,"REV_AT_EPOCH":7742,"BSTAR":0.000079426679,"MEAN_MOTION_DOT":4.9e-7,"MEAN_MOTION_DDOT":0},{"OBJECT_NAME":"HULIANWANG DIGUI-06","OBJECT_ID":"2024-240F","EPOCH":"2026-07-23T07:10:56.324064","CLASSIFICATION_TYPE":"U","MEAN_MOTION":13.24408842,"ECCENTRICITY":0.00022122,"INCLINATION":86.5008,"RA_OF_ASC_NODE":330.9211,"ARG_OF_PERICENTER":104.9365,"MEAN_ANOMALY":255.2014,"EPHEMERIS_TYPE":0,"NORAD_CAT_ID":62328,"ELEMENT_SET_NO":999,"REV_AT_EPOCH":7742,"BSTAR":0.00011359709,"MEAN_MOTION_DOT":6.3e-7,"MEAN_MOTION_DDOT":0},{"OBJECT_NAME":"HULIANWANG DIGUI-07","OBJECT_ID":"2024-240G","EPOCH":"2026-07-23T07:00:01.043136","CLASSIFICATION_TYPE":"U","MEAN_MOTION":13.24411309,"ECCENTRICITY":0.0002101,"INCLINATION":86.4978,"RA_OF_ASC_NODE":330.752,"ARG_OF_PERICENTER":103.7172,"MEAN_ANOMALY":256.4196,"EPHEMERIS_TYPE":0,"NORAD_CAT_ID":62329,"ELEMENT_SET_NO":999,"REV_AT_EPOCH":7742,"BSTAR":0.00010385073,"MEAN_MOTION_DOT":5.9e-7,"MEAN_MOTION_DDOT":0},{"OBJECT_NAME":"HULIANWANG DIGUI-08","OBJECT_ID":"2024-240H","EPOCH":"2026-07-23T07:21:47.382624","CLASSIFICATION_TYPE":"U","MEAN_MOTION":13.24411716,"ECCENTRICITY":0.00022706,"INCLINATION":86.5062,"RA_OF_ASC_NODE":331.2297,"ARG_OF_PERICENTER":98.0206,"MEAN_ANOMALY":262.1186,"EPHEMERIS_TYPE":0,"NORAD_CAT_ID":62330,"ELEMENT_SET_NO":999,"REV_AT_EPOCH":7742,"BSTAR":0.00013142115,"MEAN_MOTION_DOT":7.1e-7,"MEAN_MOTION_DDOT":0},{"OBJECT_NAME":"HULIANWANG DIGUI-09","OBJECT_ID":"2024-240J","EPOCH":"2026-07-23T06:49:09.109344","CLASSIFICATION_TYPE":"U","MEAN_MOTION":13.24410242,"ECCENTRICITY":0.00020453,"INCLINATION":86.5027,"RA_OF_ASC_NODE":331.0865,"ARG_OF_PERICENTER":102.7092,"MEAN_ANOMALY":257.4271,"EPHEMERIS_TYPE":0,"NORAD_CAT_ID":62331,"ELEMENT_SET_NO":999,"REV_AT_EPOCH":7741,"BSTAR":0.000063325363,"MEAN_MOTION_DOT":4.2e-7,"MEAN_MOTION_DDOT":0},{"OBJECT_NAME":"HULIANWANG DIGUI-10","OBJECT_ID":"2024-240K","EPOCH":"2026-07-23T06:38:16.346112","CLASSIFICATION_TYPE":"U","MEAN_MOTION":13.24411114,"ECCENTRICITY":0.00021567,"INCLINATION":86.5058,"RA_OF_ASC_NODE":331.2525,"ARG_OF_PERICENTER":104.2311,"MEAN_ANOMALY":255.9062,"EPHEMERIS_TYPE":0,"NORAD_CAT_ID":62332,"ELEMENT_SET_NO":999,"REV_AT_EPOCH":7741,"BSTAR":0.000064816822,"MEAN_MOTION_DOT":4.2e-7,"MEAN_MOTION_DDOT":0},{"OBJECT_NAME":"HULIANWANG DIGUI-11","OBJECT_ID":"2025-030A","EPOCH":"2026-07-23T05:54:47.618208","CLASSIFICATION_TYPE":"U","MEAN_MOTION":13.29324813,"ECCENTRICITY":0.00008883,"INCLINATION":50.0007,"RA_OF_ASC_NODE":106.4864,"ARG_OF_PERICENTER":298.3709,"MEAN_ANOMALY":61.7074,"EPHEMERIS_TYPE":0,"NORAD_CAT_ID":62971,"ELEMENT_SET_NO":999,"REV_AT_EPOCH":7065,"BSTAR":0.000051481854,"MEAN_MOTION_DOT":-0.000001,"MEAN_MOTION_DDOT":0}]}
