HULIANWANG JISHU SHIYAN*
1 57288U 23095A   26204.33461053  .00000051  00000+0  65108-4 0  9997
2 57288  86.5053 352.2618 0019540  90.7743 269.5639 13.39544699148595
HULIANWANG JISHU SHIYAN*
1 57289U 23095B   26204.32605317  .00000050  00000+0  64734-4 0  9993
2 57289  86.5054 352.2742 0018111  89.0186 271.3032 13.39553314148592
HULIANWANG JISHU SHIYAN*
1 58691U 23212A   26204.20978676 -.00000088  00000+0  72873-4 0  9995
2 58691  49.9981 211.7661 0001236 247.2045 112.8702 13.41459515126087
HULIANWANG JISHU SHIYAN*
1 58692U 23212B   26204.20306774 -.00000091  00000+0  65737-4 0  9995
2 58692  49.9950 212.1464 0001375 236.4252 123.6494 13.41460583126089
HULIANWANG JISHU SHIYAN*
1 58693U 23212C   26204.20630261 -.00000079  00000+0  87500-4 0  9995
2 58693  49.9964 212.2621 0001219 225.8928 134.1849 13.41462529126094
HULIANWANG DIGUI-01     
1 62323U 24240A   26204.26147037  .00000029  00000+0  32363-4 0  9993
2 62323  86.5026 331.0690 0002055 103.8994 256.2369 13.24411885 77412
HULIANWANG DIGUI-02     
1 62324U 24240B   26204.26893155  .00000029  00000+0  34448-4 0  9999
2 62324  86.5055 331.2358 0002026 104.7065 255.4294 13.24411773 77420
HULIANWANG DIGUI-03     
1 62325U 24240C   26204.25390421  .00000038  00000+0  53659-4 0  9992
2 62325  86.5009 330.9676 0002071 102.1277 258.0089 13.24410487 77417
HULIANWANG DIGUI-04     
1 62326U 24240D   26204.32191368  .00000041  00000+0  62159-4 0  9999
2 62326  86.5019 330.9888 0002188 101.0941 259.0439 13.24410726 77426
HULIANWANG DIGUI-05     
1 62327U 24240E   26204.31435726  .00000049  00000+0  79427-4 0  9992
2 62327  86.5071 331.2812 0002208  98.5836 261.5548 13.24411353 77428
HULIANWANG DIGUI-06     
1 62328U 24240F   26204.29926301  .00000063  00000+0  11360-3 0  9991
2 62328  86.5008 330.9211 0002212 104.9365 255.2014 13.24408842 77429
HULIANWANG DIGUI-07     
1 62329U 24240G   26204.29167874  .00000059  00000+0  10385-3 0  9995
2 62329  86.4978 330.7520 0002101 103.7172 256.4196 13.24411309 77422
HULIANWANG DIGUI-08     
1 62330U 24240H   26204.30679841  .00000071  00000+0  13142-3 0  9999
2 62330  86.5062 331.2297 0002270  98.0206 262.1186 13.24411716 77422
HULIANWANG DIGUI-09     
1 62331U 24240J   26204.28413321  .00000042  00000+0  63325-4 0  9993
2 62331  86.5027 331.0865 0002045 102.7092 257.4271 13.24410242 77413
HULIANWANG DIGUI-10     
1 62332U 24240K   26204.27657808  .00000042  00000+0  64817-4 0  9990
2 62332  86.5058 331.2525 0002156 104.2311 255.9062 13.24411114 77417
HULIANWANG DIGUI-11     
1 62971U 25030A   26204.24638447 -.00000100  00000+0  51482-4 0  9992
2 62971  50.0007 106.4864 0000888 298.3709  61.7074 13.29324813 70659
